OBJECT_NAME,OBJECT_ID,EPOCH,MEAN_MOTION,ECCENTRICITY,INCLINATION,RA_OF_ASC_NODE,ARG_OF_PERICENTER,MEAN_ANOMALY,EPHEMERIS_TYPE,CLASSIFICATION_TYPE,NORAD_CAT_ID,ELEMENT_SET_NO,REV_AT_EPOCH,BSTAR,MEAN_MOTION_DOT,MEAN_MOTION_DDOT
APRIZESAT 2,2004-025A,2026-07-13T10:43:32.270592,14.38047170,.01058253,98.1039,358.9437,170.1481,190.1816,0,U,28366,999,15541,.45666746E-4,.105E-5,0
SAUDICOMSAT 1,2004-025D,2026-07-13T19:50:56.484096,14.55493011,.0031041,98.5777,205.6781,303.2105,56.6117,0,U,28369,999,16800,.46857E-4,.155E-5,0
SAUDICOMSAT 2,2004-025E,2026-07-13T11:39:13.538304,14.49993879,.00555373,98.6642,207.4753,178.8540,181.2790,0,U,28370,999,16391,.37362225E-4,.98E-6,0
APRIZESAT 1,2004-025G,2026-07-13T14:56:25.365984,14.51791494,.0045799,98.6309,206.0678,75.3189,285.3076,0,U,28372,999,16574,.42909E-4,.126E-5,0
NANOSAT-1,2004-049B,2026-07-13T19:16:59.380320,14.80209263,.0003687,98.2307,332.1206,188.3855,171.7295,0,U,28493,999,15938,.7062E-4,.481E-5,0
SAUDICOMSAT 7,2007-012C,2026-07-13T20:47:00.811104,14.66135847,.0056931,98.3797,169.5462,112.3640,248.3609,0,U,31119,999,2634,.53196E-4,.246E-5,0
SAUDICOMSAT 6,2007-012E,2026-07-13T20:09:15.206112,14.62583885,.0070485,98.4116,162.8552,243.3861,116.0107,0,U,31121,999,2408,.4294E-4,.171E-5,0
SAUDICOMSAT 5,2007-012H,2026-07-13T20:53:04.652736,14.68191182,.0048324,98.3509,170.2921,42.9122,317.5837,0,U,31124,999,2751,.64421E-4,.323E-5,0
SAUDICOMSAT 3,2007-012J,2026-07-13T20:27:28.927296,14.70748585,.003836,98.3162,170.8206,329.5511,30.3467,0,U,31125,999,2874,.71762E-4,.388E-5,0
SAUDICOMSAT 4,2007-012L,2026-07-13T20:50:57.045120,14.64534744,.0063469,98.4002,167.9861,173.8692,186.3301,0,U,31127,999,2519,.46866E-4,.202E-5,0
APRIZESAT 4,2009-041D,2026-07-13T18:10:43.279104,14.83912595,.004213,98.1404,270.6067,234.2844,125.4446,0,U,35684,999,91530,.43447E-4,.307E-5,0
APRIZESAT 3,2009-041F,2026-07-13T09:07:21.900576,14.96307525,.00609072,98.2095,348.8641,341.9316,17.9739,0,U,35686,999,92029,.95314977E-4,.1048E-4,0
S-NET D,2018-014G,2026-07-13T17:13:58.897920,15.16909870,.0006342,97.5338,99.3442,291.3470,68.7086,0,U,43186,999,46278,.13164E-3,.2527E-4,0
S-NET B,2018-014H,2026-07-13T17:31:13.511136,15.16879717,.0006915,97.5343,99.3435,284.9863,75.0604,0,U,43187,999,46278,.13809E-3,.2652E-4,0
S-NET A,2018-014J,2026-07-13T17:12:09.247680,15.16918266,.0006815,97.5354,99.5443,286.1602,73.8881,0,U,43188,999,46278,.13174E-3,.253E-4,0
S-NET C,2018-014K,2026-07-13T17:37:00.631776,15.16871122,.000815,97.5371,99.6403,276.5191,83.5114,0,U,43189,999,46133,.14134E-3,.2716E-4,0
SALSAT,2020-068K,2026-07-13T12:03:32.996736,15.30157505,.00089942,97.8854,199.1769,199.0888,161.0016,0,U,46495,999,31938,.15262836E-3,.4373E-4,0
OOV-CUBE (TUBSAT-30),2024-128F,2026-07-13T09:41:52.285632,15.02869569,.00413557,61.9937,134.1487,139.6220,220.7954,0,U,60240,999,11005,.94341179E-4,.1077E-4,0
LPNTSAT-001 (IOD-1),2026-065A,2026-07-13T15:08:57.396768,15.18664073,.001465,97.3983,74.5788,272.5898,87.3660,0,U,68408,999,1627,.72421E-4,.1436E-4,0
CHUANG XIN 26 (CX-26),2026-158A,2026-07-13T12:20:46.071168,14.25122238,.0004887,49.9860,287.5119,294.2352,65.8050,0,U,69972,999,46,-.21871415E-4,-.212E-5,0
