APRIZESAT 2             
1 28366U 04025A   26194.44690128  .00000105  00000+0  45667-4 0  9999
2 28366  98.1039 358.9437 0105825 170.1481 190.1816 14.38047170155416
SAUDICOMSAT 1           
1 28369U 04025D   26194.82704264  .00000155  00000+0  46857-4 0  9998
2 28369  98.5777 205.6781 0031041 303.2105  56.6117 14.55493011168009
SAUDICOMSAT 2           
1 28370U 04025E   26194.48557336  .00000098  00000+0  37362-4 0  9995
2 28370  98.6642 207.4753 0055537 178.8540 181.2790 14.49993879163914
APRIZESAT 1             
1 28372U 04025G   26194.62251581  .00000126  00000+0  42909-4 0  9991
2 28372  98.6309 206.0678 0045799  75.3189 285.3076 14.51791494165744
NANOSAT-1               
1 28493U 04049B   26194.80346505  .00000481  00000+0  70620-4 0  9997
2 28493  98.2307 332.1206 0003687 188.3855 171.7295 14.80209263159389
SAUDICOMSAT 7           
1 31119U 07012C   26194.86598161  .00000246  00000+0  53196-4 0  9990
2 31119  98.3797 169.5462 0056931 112.3640 248.3609 14.66135847 26346
SAUDICOMSAT 6           
1 31121U 07012E   26194.83975933  .00000171  00000+0  42940-4 0  9998
2 31121  98.4116 162.8552 0070485 243.3861 116.0107 14.62583885 24089
SAUDICOMSAT 5           
1 31124U 07012H   26194.87019274  .00000323  00000+0  64421-4 0  9999
2 31124  98.3509 170.2921 0048324  42.9122 317.5837 14.68191182 27510
SAUDICOMSAT 3           
1 31125U 07012J   26194.85241814  .00000388  00000+0  71762-4 0  9992
2 31125  98.3162 170.8206 0038360 329.5511  30.3467 14.70748585 28746
SAUDICOMSAT 4           
1 31127U 07012L   26194.86871580  .00000202  00000+0  46866-4 0  9996
2 31127  98.4002 167.9861 0063469 173.8692 186.3301 14.64534744 25192
APRIZESAT 4             
1 35684U 09041D   26194.75744536  .00000307  00000+0  43447-4 0  9998
2 35684  98.1404 270.6067 0042130 234.2844 125.4446 14.83912595915300
APRIZESAT 3             
1 35686U 09041F   26194.38011459  .00001048  00000+0  95315-4 0  9994
2 35686  98.2095 348.8641 0060907 341.9316  17.9739 14.96307525920296
S-NET D                 
1 43186U 18014G   26194.71804280  .00002527  00000+0  13164-3 0  9991
2 43186  97.5338  99.3442 0006342 291.3470  68.7086 15.16909870462789
S-NET B                 
1 43187U 18014H   26194.73001749  .00002652  00000+0  13809-3 0  9998
2 43187  97.5343  99.3435 0006915 284.9863  75.0604 15.16879717462781
S-NET A                 
1 43188U 18014J   26194.71677370  .00002530  00000+0  13174-3 0  9996
2 43188  97.5354  99.5443 0006815 286.1602  73.8881 15.16918266462785
S-NET C                 
1 43189U 18014K   26194.73403509  .00002716  00000+0  14134-3 0  9993
2 43189  97.5371  99.6403 0008150 276.5191  83.5114 15.16871122461338
SALSAT                  
1 46495U 20068K   26194.50246524  .00004373  00000+0  15263-3 0  9990
2 46495  97.8854 199.1769 0008994 199.0888 161.0016 15.30157505319387
OOV-CUBE (TUBSAT-30)    
1 60240U 24128F   26194.40407738  .00001077  00000+0  94341-4 0  9993
2 60240  61.9937 134.1487 0041355 139.6220 220.7954 15.02869569110055
LPNTSAT-001 (IOD-1)     
1 68408U 26065A   26194.63121987  .00001436  00000+0  72421-4 0  9997
2 68408  97.3983  74.5788 0014650 272.5898  87.3660 15.18664073 16270
CHUANG XIN 26 (CX-26)   
1 69972U 26158A   26194.51442212 -.00000212  00000+0 -21871-4 0  9997
2 69972  49.9860 287.5119 0004887 294.2352  65.8050 14.25122238   462
